[{"OBJECT_NAME":"STARLINK-2582","OBJECT_ID":"2021-040AJ","EPOCH":"2026-03-10T00:00:02.999808","MEAN_MOTION":15.55262081,"ECCENTRICITY":0.0004224,"INCLINATION":53.0578,"RA_OF_ASC_NODE":128.9245,"ARG_OF_PERICENTER":359.6111,"MEAN_ANOMALY":272.6873,"EPHEMERIS_TYPE":0,"CLASSIFICATION_TYPE":"U","NORAD_CAT_ID":48460,"ELEMENT_SET_NO":999,"REV_AT_EPOCH":576,"BSTAR":0.0026278943,"MEAN_MOTION_DOT":0.00184929,"MEAN_MOTION_DDOT":0},{"OBJECT_NAME":"SITRO-AIS 44","OBJECT_ID":"2024-199P","EPOCH":"2026-03-09T22:00:49.428864","MEAN_MOTION":15.55686039,"ECCENTRICITY":0.000449,"INCLINATION":97.3075,"RA_OF_ASC_NODE":305.0705,"ARG_OF_PERICENTER":282.4122,"MEAN_ANOMALY":77.663,"EPHEMERIS_TYPE":0,"CLASSIFICATION_TYPE":"U","NORAD_CAT_ID":61748,"ELEMENT_SET_NO":999,"REV_AT_EPOCH":12229,"BSTAR":0.00083685162,"MEAN_MOTION_DOT":0.00057776,"MEAN_MOTION_DDOT":0}]
